GLOBALSTAR M067         
1 32263U 07048A   25331.33503074 -.00000070  00000+0  20052-3 0  9993
2 32263  51.9739 278.5436 0001371 356.7609 169.4710 12.40682020829737
GLOBALSTAR M070         
1 32264U 07048B   25331.25119208 -.00000066  00000+0  21095-3 0  9990
2 32264  51.9772 351.7404 0000374 123.6484 316.8693 12.62326398834267
GLOBALSTAR M066         
1 32265U 07048C   25330.96184402 -.00000092  00000+0  18283-4 0  9991
2 32265  51.9597 278.4422 0005106 345.9096  90.3677 12.30380250835331
GLOBALSTAR M068         
1 32266U 07048D   25331.06369229 -.00000086  00000+0  10179-3 0  9994
2 32266  51.9854 165.7500 0002019 110.5771  62.3233 12.62834047838130
GLOBALSTAR M079         
1 37188U 10054A   25331.30024785 -.00000091  00000+0  72520-4 0  9990
2 37188  52.0060   3.2444 0000038 162.4744 278.1815 12.62268792697052
GLOBALSTAR M074         
1 37189U 10054B   25331.24652034 -.00000093  00000+0  60937-4 0  9999
2 37189  52.0035   2.7046 0000368  81.8815 354.4852 12.62263665697655
GLOBALSTAR M076         
1 37190U 10054C   25331.02094145 -.00000093  00000+0  58810-4 0  9997
2 37190  52.0054   3.5791 0000259  43.3483 326.0839 12.62267597697341
GLOBALSTAR M077         
1 37191U 10054D   25331.31271656 -.00000074  00000+0  11149-3 0  9996
2 37191  52.0118 332.5153 0017595 304.0375 155.7197 11.82670067697534
